{
  "norad_id": 65740,
  "name": "STARLINK-35130",
  "history": [
    {
      "epoch": "2026-03-28T18:01:03.978336Z",
      "apogee_km": 476.1433435107401,
      "perigee_km": 474.26169061293604,
      "latitude_deg": -2.8368404820033452e-05,
      "longitude_deg": 147.80250300290857,
      "height_km": 475.64635331211036,
      "semi_major_axis_km": 6853.339517061838,
      "eccentricity": 0.00013728,
      "inclination_deg": 53.1591,
      "raan_deg": 244.2358,
      "arg_perigee_deg": 61.1303,
      "mean_anomaly_deg": 298.9835,
      "mean_motion_rev_day": 15.30204204
    }
  ]
}